{"type": "FeatureCollection", "features": [ {"type": "Feature", "properties": {"norad_id": 36046, "name": "COSMOS 2251 DEB", "group": "cosmos-2251-debris", "lat": -69.64882397701857, "lon": 141.54079361496113, "alt_km": 719.6364048626629, "timestamp": "2025-12-15T14:57:58.208600+00:00", "meta": {"OBJECT_NAME": "COSMOS 2251 DEB", "OBJECT_ID": "1993-036AXH", "EPOCH": "2025-12-14T01:49:52.563648", "MEAN_MOTION": 14.65281865, "ECCENTRICITY": 0.00556177, "INCLINATION": 74.0167, "RA_OF_ASC_NODE": 273.9225, "ARG_OF_PERICENTER": 59.51, "MEAN_ANOMALY": 319.3065, "EPHEMERIS_TYPE": 0, "CLASSIFICATION_TYPE": "U", "NORAD_CAT_ID": 36046, "ELEMENT_SET_NO": 999, "REV_AT_EPOCH": 64023, "BSTAR": 0.00073234534, "MEAN_MOTION_DOT": 4.01e-05, "MEAN_MOTION_DDOT": 0}, "tle": {"line1": "1 36046U 93036AXH 25348.07630282  .00004010  00000+0  73235-3 0  9997", "line2": "2 36046  74.0167 273.9225 0055617  59.5100 319.3065 14.65281865640238"}}, "geometry": {"type": "Point", "coordinates": [141.54079361496113, -69.64882397701857]}}, {"type": "Feature", "properties": {"norad_id": 36047, "name": "COSMOS 2251 DEB", "group": "cosmos-2251-debris", "lat": 30.395032014304707, "lon": 138.66585754685318, "alt_km": 582.2396719388353, "timestamp": "2025-12-15T14:57:58.208609+00:00", "meta": {"OBJECT_NAME": "COSMOS 2251 DEB", "OBJECT_ID": "1993-036AXJ", "EPOCH": "2025-12-14T22:15:27.613152", "MEAN_MOTION": 14.96069121, "ECCENTRICITY": 0.00083362, "INCLINATION": 74.0356, "RA_OF_ASC_NODE": 329.7384, "ARG_OF_PERICENTER": 357.0105, "MEAN_ANOMALY": 3.1028, "EPHEMERIS_TYPE": 0, "CLASSIFICATION_TYPE": "U", "NORAD_CAT_ID": 36047, "ELEMENT_SET_NO": 999, "REV_AT_EPOCH": 65972, "BSTAR": 0.0012898092, "MEAN_MOTION_DOT": 0.00014498, "MEAN_MOTION_DDOT": 0}, "tle": {"line1": "1 36047U 93036AXJ 25348.92740293  .00014498  00000+0  12898-2 0  9994", "line2": "2 36047  74.0356 329.7384 0008336 357.0105   3.1028 14.96069121659726"}}, "geometry": {"type": "Point", "coordinates": [138.66585754685318, 30.395032014304707]}}, {"type": "Feature", "properties": {"norad_id": 36048, "name": "COSMOS 2251 DEB", "group": "cosmos-2251-debris", "lat": -13.38232251690161, "lon": 117.8812368542153, "alt_km": 786.2127340673278, "timestamp": "2025-12-15T14:57:58.208619+00:00", "meta": {"OBJECT_NAME": "COSMOS 2251 DEB", "OBJECT_ID": "1993-036AXK", "EPOCH": "2025-12-14T19:49:30.529920", "MEAN_MOTION": 14.37856281, "ECCENTRICITY": 0.00267154, "INCLINATION": 74.057, "RA_OF_ASC_NODE": 295.4478, "ARG_OF_PERICENTER": 345.0601, "MEAN_ANOMALY": 42.267, "EPHEMERIS_TYPE": 0, "CLASSIFICATION_TYPE": "U", "NORAD_CAT_ID": 36048, "ELEMENT_SET_NO": 999, "REV_AT_EPOCH": 85532, "BSTAR": 0.000348713, "MEAN_MOTION_DOT": 1.03e-05, "MEAN_MOTION_DDOT": 0}, "tle": {"line1": "1 36048U 93036AXK 25348.82604780  .00001030  00000+0  34871-3 0  9998", "line2": "2 36048  74.0570 295.4478 0026715 345.0601  42.2670 14.37856281855324"}}, "geometry": {"type": "Point", "coordinates": [117.8812368542153, -13.38232251690161]}}, {"type": "Feature", "properties": {"norad_id": 36049, "name": "COSMOS 2251 DEB", "group": "cosmos-2251-debris", "lat": -11.801418461947359, "lon": -62.91169477539282, "alt_km": 682.7079048763735, "timestamp": "2025-12-15T14:57:58.208628+00:00", "meta": {"OBJECT_NAME": "COSMOS 2251 DEB", "OBJECT_ID": "1993-036AXL", "EPOCH": "2025-12-14T15:06:03.977280", "MEAN_MOTION": 14.62178283, "ECCENTRICITY": 0.00106433, "INCLINATION": 74.0297, "RA_OF_ASC_NODE": 115.562, "ARG_OF_PERICENTER": 202.4764, "MEAN_ANOMALY": 157.5938, "EPHEMERIS_TYPE": 0, "CLASSIFICATION_TYPE": "U", "NORAD_CAT_ID": 36049, "ELEMENT_SET_NO": 999, "REV_AT_EPOCH": 85392, "BSTAR": 0.0012373854, "MEAN_MOTION_DOT": 6.209e-05, "MEAN_MOTION_DDOT": 0}, "tle": {"line1": "1 36049U 93036AXL 25348.62921270  .00006209  00000+0  12374-2 0  9999", "line2": "2 36049  74.0297 115.5620 0010643 202.4764 157.5938 14.62178283853929"}}, "geometry": {"type": "Point", "coordinates": [-62.91169477539282, -11.801418461947359]}}, {"type": "Feature", "properties": {"norad_id": 36050, "name": "COSMOS 2251 DEB", "group": "cosmos-2251-debris", "lat": -49.83240193317124, "lon": 168.3198302526991, "alt_km": 522.9760280799064, "timestamp": "2025-12-15T14:57:58.208646+00:00", "meta": {"OBJECT_NAME": "COSMOS 2251 DEB", "OBJECT_ID": "1993-036AXM", "EPOCH": "2025-12-14T20:00:15.103296", "MEAN_MOTION": 15.01068773, "ECCENTRICITY": 0.00887055, "INCLINATION": 74.0305, "RA_OF_ASC_NODE": 189.7599, "ARG_OF_PERICENTER": 268.8941, "MEAN_ANOMALY": 90.2083, "EPHEMERIS_TYPE": 0, "CLASSIFICATION_TYPE": "U", "NORAD_CAT_ID": 36050, "ELEMENT_SET_NO": 999, "REV_AT_EPOCH": 67066, "BSTAR": 0.00046388278, "MEAN_MOTION_DOT": 6.413e-05, "MEAN_MOTION_DDOT": 0}, "tle": {"line1": "1 36050U 93036AXM 25348.83350814  .00006413  00000+0  46388-3 0  9994", "line2": "2 36050  74.0305 189.7599 0088705 268.8941  90.2083 15.01068773670664"}}, "geometry": {"type": "Point", "coordinates": [168.3198302526991, -49.83240193317124]}}, {"type": "Feature", "properties": {"norad_id": 36053, "name": "COSMOS 2251 DEB", "group": "cosmos-2251-debris", "lat": 57.10684165028163, "lon": -59.428799969042004, "alt_km": 675.1383534143597, "timestamp": "2025-12-15T14:57:58.208655+00:00", "meta": {"OBJECT_NAME": "COSMOS 2251 DEB", "OBJECT_ID": "1993-036AXQ", "EPOCH": "2025-12-14T10:24:52.276896", "MEAN_MOTION": 14.57209114, "ECCENTRICITY": 0.00325891, "INCLINATION": 73.8698, "RA_OF_ASC_NODE": 149.4338, "ARG_OF_PERICENTER": 97.9449, "MEAN_ANOMALY": 262.5415, "EPHEMERIS_TYPE": 0, "CLASSIFICATION_TYPE": "U", "NORAD_CAT_ID": 36053, "ELEMENT_SET_NO": 999, "REV_AT_EPOCH": 87469, "BSTAR": 0.0016910413, "MEAN_MOTION_DOT": 7.671e-05, "MEAN_MOTION_DDOT": 0}, "tle": {"line1": "1 36053U 93036AXQ 25348.43393839  .00007671  00000+0  16910-2 0  9991", "line2": "2 36053  73.8698 149.4338 0032589  97.9449 262.5415 14.57209114874694"}}, "geometry": {"type": "Point", "coordinates": [-59.428799969042004, 57.10684165028163]}}, {"type": "Feature", "properties": {"norad_id": 36058, "name": "COSMOS 2251 DEB", "group": "cosmos-2251-debris", "lat": -71.8722997931138, "lon": -90.98333995614567, "alt_km": 709.4592912450553, "timestamp": "2025-12-15T14:57:58.208778+00:00", "meta": {"OBJECT_NAME": "COSMOS 2251 DEB", "OBJECT_ID": "1993-036AXV", "EPOCH": "2025-12-13T20:37:32.134944", "MEAN_MOTION": 14.58701231, "ECCENTRICITY": 0.00444905, "INCLINATION": 74.0239, "RA_OF_ASC_NODE": 31.3248, "ARG_OF_PERICENTER": 165.3965, "MEAN_ANOMALY": 194.8498, "EPHEMERIS_TYPE": 0, "CLASSIFICATION_TYPE": "U", "NORAD_CAT_ID": 36058, "ELEMENT_SET_NO": 999, "REV_AT_EPOCH": 66127, "BSTAR": 0.00064390107, "MEAN_MOTION_DOT": 3.016e-05, "MEAN_MOTION_DDOT": 0}, "tle": {"line1": "1 36058U 93036AXV 25347.85939971  .00003016  00000+0  64390-3 0  9999", "line2": "2 36058  74.0239  31.3248 0044490 165.3965 194.8498 14.58701231661273"}}, "geometry": {"type": "Point", "coordinates": [-90.98333995614567, -71.8722997931138]}}, {"type": "Feature", "properties": {"norad_id": 36060, "name": "COSMOS 2251 DEB", "group": "cosmos-2251-debris", "lat": -9.36082698874031, "lon": -133.4869025546511, "alt_km": 745.6827552699369, "timestamp": "2025-12-15T14:57:58.208791+00:00", "meta": {"OBJECT_NAME": "COSMOS 2251 DEB", "OBJECT_ID": "1993-036AXX", "EPOCH": "2025-12-14T09:02:26.682144", "MEAN_MOTION": 14.42004042, "ECCENTRICITY": 0.00153412, "INCLINATION": 74.0286, "RA_OF_ASC_NODE": 231.5306, "ARG_OF_PERICENTER": 328.3192, "MEAN_ANOMALY": 31.7039, "EPHEMERIS_TYPE": 0, "CLASSIFICATION_TYPE": "U", "NORAD_CAT_ID": 36060, "ELEMENT_SET_NO": 999, "REV_AT_EPOCH": 85033, "BSTAR": 0.00041372268, "MEAN_MOTION_DOT": 1.333e-05, "MEAN_MOTION_DDOT": 0}, "tle": {"line1": "1 36060U 93036AXX 25348.37669771  .00001333  00000+0  41372-3 0  9993", "line2": "2 36060  74.0286 231.5306 0015341 328.3192  31.7039 14.42004042850339"}}, "geometry": {"type": "Point", "coordinates": [-133.4869025546511, -9.36082698874031]}}, {"type": "Feature", "properties": {"norad_id": 36061, "name": "COSMOS 2251 DEB", "group": "cosmos-2251-debris", "lat": 73.4858054382458, "lon": 69.55142050737764, "alt_km": 745.6917470905801, "timestamp": "2025-12-15T14:57:58.208801+00:00", "meta": {"OBJECT_NAME": "COSMOS 2251 DEB", "OBJECT_ID": "1993-036AXY", "EPOCH": "2025-12-14T18:28:25.943808", "MEAN_MOTION": 14.33711933, "ECCENTRICITY": 0.003679, "INCLINATION": 74.0242, "RA_OF_ASC_NODE": 356.0444, "ARG_OF_PERICENTER": 83.3276, "MEAN_ANOMALY": 277.2061, "EPHEMERIS_TYPE": 0, "CLASSIFICATION_TYPE": "U", "NORAD_CAT_ID": 36061, "ELEMENT_SET_NO": 999, "REV_AT_EPOCH": 65133, "BSTAR": 0.0003323683, "MEAN_MOTION_DOT": 9.04e-06, "MEAN_MOTION_DDOT": 0}, "tle": {"line1": "1 36061U 93036AXY 25348.76974472  .00000904  00000+0  33237-3 0  9998", "line2": "2 36061  74.0242 356.0444 0036790  83.3276 277.2061 14.33711933651335"}}, "geometry": {"type": "Point", "coordinates": [69.55142050737764, 73.4858054382458]}}, {"type": "Feature", "properties": {"norad_id": 36073, "name": "COSMOS 2251 DEB", "group": "cosmos-2251-debris", "lat": -14.667419973967096, "lon": 141.5708115352051, "alt_km": 796.4045718459292, "timestamp": "2025-12-15T14:57:58.208810+00:00", "meta": {"OBJECT_NAME": "COSMOS 2251 DEB", "OBJECT_ID": "1993-036AYL", "EPOCH": "2025-12-14T06:16:10.983072", "MEAN_MOTION": 14.34955439, "ECCENTRICITY": 0.00239275, "INCLINATION": 74.0321, "RA_OF_ASC_NODE": 319.7693, "ARG_OF_PERICENTER": 27.306, "MEAN_ANOMALY": 332.9344, "EPHEMERIS_TYPE": 0, "CLASSIFICATION_TYPE": "U", "NORAD_CAT_ID": 36073, "ELEMENT_SET_NO": 999, "REV_AT_EPOCH": 70229, "BSTAR": 0.0003171948, "MEAN_MOTION_DOT": 8.79e-06, "MEAN_MOTION_DDOT": 0}, "tle": {"line1": "1 36073U 93036AYL 25348.26123823  .00000879  00000+0  31719-3 0  9996", "line2": "2 36073  74.0321 319.7693 0023927  27.3060 332.9344 14.34955439702292"}}, "geometry": {"type": "Point", "coordinates": [141.5708115352051, -14.667419973967096]}}]}